From: horizons@ssd.jpl.nasa.gov (Horizons Ephemeris System)
Subject: [Horizons] SMALL BODY #C(500@10)_T(73P/Schwassmann-Wachmann 3) (1/1)
Date: March 1, 2021 at 1:22:53 PM PST

Automated mail xmit by MAIL_REQUEST, PID= 2301 Mon Mar  1 13:22:53 2021
++++++++++++++++++++++++++++++++ (part 1 of 1)  +++++++++++++++++++++++++++++++
*******************************************************************************
JPL/HORIZONS             73P/Schwassmann-Wachmann 3        2021-Mar-01 13:22:52
Rec #:90000724 (+COV) Soln.date: 2021-Feb-01_11:34:56    # obs: 990 (2011-2021)

IAU76/J2000 helio. ecliptic osc. elements (au, days, deg., period=Julian yrs):

 EPOCH=  2457800.5 ! 2017-Feb-16.0000000 (TDB)    RMSW= n.a.
  EC= .6855236514795381   QR= .9721772236077268   TP= 2457829.342399362
  OM= 69.66171061633882   W= 199.3892656094352    IN= 11.23693112176631
  A= 3.091416025979679    MA= 354.770029022457    ADIST= 5.210654828351631
  PER= 5.4355612678774    N= .181329257           ANGMOM= .022020217
  DAN= 4.63733            DDN= .99513             L= 268.7062997
  B= -3.7092086           MOID= .014443           TP= 2017-Mar-16.8423993620

Comet physical (GM= km^3/s^2; RAD= km):
  GM= n.a.                RAD= n.a.
  M1=  13.8     M2=  n.a.     k1=  6.5    k2= n.a.     PHCOF= n.a.

Comet non-gravitational force model (AMRAT=m^2/kg;A1-A3=au/d^2;DT=days;R0=au):
  AMRAT=  0.                                      DT=  0.
  A1= 5.454960465431E-9   A2= 4.641681909561E-10  A3= 0.
Standard model:
  ALN=  .1112620426   NK=  4.6142   NM=  2.15     NN=  5.093    R0=  2.808

COMET comments 
1: soln ref.= JPL#K223/1, data arc: 2011-01-01 to 2021-01-13
2: k1=6.5;
*******************************************************************************


*******************************************************************************
Ephemeris / MAIL_REQUEST Mon Mar  1 13:22:52 2021 Pasadena, USA  / Horizons
*******************************************************************************
Target body name: 73P/Schwassmann-Wachmann 3      {source: JPL#K223/1}
Center body name: Sun (10)                        {source: DE431}
Center-site name: BODY CENTER
*******************************************************************************
Start time      : A.D. 1990-Jan-01 00:00:00.0000 TDB
Stop  time      : A.D. 2020-Dec-31 00:00:00.0000 TDB
Step-size       : 10080 minutes
*******************************************************************************
Center geodetic : 0.00000000,0.00000000,0.0000000 {E-lon(deg),Lat(deg),Alt(km)}
Center cylindric: 0.00000000,0.00000000,0.0000000 {E-lon(deg),Dxy(km),Dz(km)}
Center radii    : 696000.0 x 696000.0 x 696000.0 k{Equator, meridian, pole}    
Small perturbers: Yes                             {source: SB431-N16}
Output units    : AU-D
Output type     : GEOMETRIC cartesian states
Output format   : 6 (LT, range, and range-rate)
Reference frame : Ecliptic of J2000.0
*******************************************************************************
Initial IAU76/J2000 heliocentric ecliptic osculating elements (au, days, deg.):
 EPOCH=  2457800.5 ! 2017-Feb-16.0000000 (TDB)    RMSW= n.a.                  
  EC= .6855236514795381   QR= .9721772236077268   TP= 2457829.342399362       
  OM= 69.66171061633882   W= 199.3892656094352    IN= 11.23693112176631       
 Equivalent ICRF heliocentric equatorial cartesian coordinates (au, au/d):
  X=-6.350494705483701E-01  Y=-7.960202513976087E-01  Z=-2.795087103980762E-01
 VX= 1.950670573274714E-02 VY=-5.818255418614964E-03 VZ=-7.097486870013563E-03
Comet physical (GM= km^3/s^2; RAD= km):                                        
  GM= n.a.                RAD= n.a.                                           
  M1=  13.8     M2=  n.a.     k1=  6.5    k2= n.a.     PHCOF= n.a.            
Comet non-gravitational force model (AMRAT=m^2/kg;A1-A3=au/d^2;DT=days;R0=au): 
  AMRAT=  0.                                      DT=  0.                     
  A1= 5.454960465431E-9   A2= 4.641681909561E-10  A3= 0.                      
Standard model:                                                               
  ALN=  .1112620426   NK=  4.6142   NM=  2.15     NN=  5.093    R0=  2.808    
*******************************************************************************
           JDTDB,            Calendar Date (TDB),                     LT,                     RG,                     RR,
**************************************************************************************************************************
$$SOE
2458364.500000000, A.D. 2018-Sep-03 00:00:00.0000,  2.539389012768023E-02,  4.396815778327212E+00,  3.720826014380561E-03,
2458371.500000000, A.D. 2018-Sep-10 00:00:00.0000,  2.554296401827023E-02,  4.422627122354737E+00,  3.653935657295126E-03,
2458378.500000000, A.D. 2018-Sep-17 00:00:00.0000,  2.568934467393361E-02,  4.447972147210187E+00,  3.587589389192849E-03,
2458385.500000000, A.D. 2018-Sep-24 00:00:00.0000,  2.583305377230684E-02,  4.472854606259966E+00,  3.521771334791944E-03,
2458392.500000000, A.D. 2018-Oct-01 00:00:00.0000,  2.597411235022525E-02,  4.497278141919201E+00,  3.456465890888118E-03,
2458399.500000000, A.D. 2018-Oct-08 00:00:00.0000,  2.611254083058074E-02,  4.521246290302005E+00,  3.391658284731894E-03,
2458406.500000000, A.D. 2018-Oct-15 00:00:00.0000,  2.624835905335304E-02,  4.544762486594384E+00,  3.327334419317261E-03,
2458413.500000000, A.D. 2018-Oct-22 00:00:00.0000,  2.638158629942442E-02,  4.567830069177615E+00,  3.263480712767202E-03,
2458420.500000000, A.D. 2018-Oct-29 00:00:00.0000,  2.651224130925487E-02,  4.590452282861755E+00,  3.200083998042150E-03,
2458427.500000000, A.D. 2018-Nov-05 00:00:00.0000,  2.664034229788750E-02,  4.612632281483759E+00,  3.137131433242450E-03,
2458434.500000000, A.D. 2018-Nov-12 00:00:00.0000,  2.676590696578444E-02,  4.634373129783638E+00,  3.074610380045933E-03,
2458441.500000000, A.D. 2018-Nov-19 00:00:00.0000,  2.688895250430928E-02,  4.655677804353725E+00,  3.012508283756175E-03,
2458448.500000000, A.D. 2018-Nov-26 00:00:00.0000,  2.700949560263535E-02,  4.676549194834807E+00,  2.950812999506341E-03,
2458455.500000000, A.D. 2018-Dec-03 00:00:00.0000,  2.712755249015895E-02,  4.696990111259746E+00,  2.889514179444263E-03,
2458462.500000000, A.D. 2018-Dec-10 00:00:00.0000,  2.724313901646350E-02,  4.717003297898836E+00,  2.828602948594543E-03,
2458469.500000000, A.D. 2018-Dec-17 00:00:00.0000,  2.735627064953301E-02,  4.736591432950493E+00,  2.768069003604413E-03,
2458476.500000000, A.D. 2018-Dec-24 00:00:00.0000,  2.746696241380206E-02,  4.755757117814926E+00,  2.707901019241052E-03,
2458483.500000000, A.D. 2018-Dec-31 00:00:00.0000,  2.757522888094285E-02,  4.774502875498953E+00,  2.648088029158380E-03,
2458490.500000000, A.D. 2019-Jan-07 00:00:00.0000,  2.768108419009862E-02,  4.792831154119346E+00,  2.588619576815899E-03,
2458497.500000000, A.D. 2019-Jan-14 00:00:00.0000,  2.778454206496889E-02,  4.810744329861019E+00,  2.529485539761527E-03,
2458504.500000000, A.D. 2019-Jan-21 00:00:00.0000,  2.788561582452586E-02,  4.828244708832515E+00,  2.470676002449521E-03,
2458511.500000000, A.D. 2019-Jan-28 00:00:00.0000,  2.798431838960429E-02,  4.845334528207024E+00,  2.412181171390941E-03,
2458518.500000000, A.D. 2019-Feb-04 00:00:00.0000,  2.808066228609220E-02,  4.862015956774828E+00,  2.353991283973356E-03,
2458525.500000000, A.D. 2019-Feb-11 00:00:00.0000,  2.817465964366105E-02,  4.878291094723435E+00,  2.296096478099994E-03,
2458532.500000000, A.D. 2019-Feb-18 00:00:00.0000,  2.826632218994514E-02,  4.894161972629782E+00,  2.238486755624308E-03,
2458539.500000000, A.D. 2019-Feb-25 00:00:00.0000,  2.835566125645524E-02,  4.909630552484132E+00,  2.181152770102476E-03,
2458546.500000000, A.D. 2019-Mar-04 00:00:00.0000,  2.844268783650446E-02,  4.924698737719648E+00,  2.124087211592149E-03,
2458553.500000000, A.D. 2019-Mar-11 00:00:00.0000,  2.852741264406628E-02,  4.939368383403335E+00,  2.067282980932505E-03,
2458560.500000000, A.D. 2019-Mar-18 00:00:00.0000,  2.860984606889077E-02,  4.953641288464651E+00,  2.010731177188792E-03,
2458567.500000000, A.D. 2019-Mar-25 00:00:00.0000,  2.868999812662050E-02,  4.967519187058351E+00,  1.954422466120508E-03,
2458574.500000000, A.D. 2019-Apr-01 00:00:00.0000,  2.876787846376048E-02,  4.981003749424997E+00,  1.898347954993883E-03,
2458581.500000000, A.D. 2019-Apr-08 00:00:00.0000,  2.884349637611394E-02,  4.994096585083031E+00,  1.842499161966886E-03,
2458588.500000000, A.D. 2019-Apr-15 00:00:00.0000,  2.891686082250154E-02,  5.006799245204160E+00,  1.786867880125501E-03,
2458595.500000000, A.D. 2019-Apr-22 00:00:00.0000,  2.898798043398564E-02,  5.019113224210511E+00,  1.731446090451536E-03,
2458602.500000000, A.D. 2019-Apr-29 00:00:00.0000,  2.905686352004460E-02,  5.031039960843658E+00,  1.676225889962232E-03,
2458609.500000000, A.D. 2019-May-06 00:00:00.0000,  2.912351807133801E-02,  5.042580838643422E+00,  1.621199387504057E-03,
2458616.500000000, A.D. 2019-May-13 00:00:00.0000,  2.918795175724883E-02,  5.053737185522296E+00,  1.566358560079538E-03,
2458623.500000000, A.D. 2019-May-20 00:00:00.0000,  2.925017192115416E-02,  5.064510272946615E+00,  1.511695401060256E-03,
2458630.500000000, A.D. 2019-May-27 00:00:00.0000,  2.931018560331133E-02,  5.074901319899148E+00,  1.457203231351639E-03,
2458637.500000000, A.D. 2019-Jun-03 00:00:00.0000,  2.936799961725279E-02,  5.084911506106463E+00,  1.402877259444446E-03,
2458644.500000000, A.D. 2019-Jun-10 00:00:00.0000,  2.942362057286697E-02,  5.094541976035272E+00,  1.348711734977577E-03,
2458651.500000000, A.D. 2019-Jun-17 00:00:00.0000,  2.947705481333522E-02,  5.103793827973376E+00,  1.294699466398930E-03,
2458658.500000000, A.D. 2019-Jun-24 00:00:00.0000,  2.952830838863806E-02,  5.112668109442426E+00,  1.240833303651596E-03,
2458665.500000000, A.D. 2019-Jul-01 00:00:00.0000,  2.957738706840372E-02,  5.121165819422589E+00,  1.187106521360257E-03,
